<?xml version="1.0" encoding="UTF-8"?>
<cdm id="CCSDS_CDM_VERS" version="1.0">
  <header>
    <COMMENT>Example CDM for the orbit-formats round-trip golden</COMMENT>
    <CREATION_DATE>2010-03-12T22:31:12.000</CREATION_DATE>
    <ORIGINATOR>JSPOC</ORIGINATOR>
    <MESSAGE_FOR>SATELLITE A</MESSAGE_FOR>
    <MESSAGE_ID>20110309014427561</MESSAGE_ID>
  </header>
  <body>
    <relativeMetadataData>
      <COMMENT>Relative metadata and data</COMMENT>
      <TCA>2010-03-13T22:37:52.618</TCA>
      <MISS_DISTANCE units="m">715.0</MISS_DISTANCE>
      <RELATIVE_SPEED units="m/s">14762.0</RELATIVE_SPEED>
      <relativeStateVector>
        <RELATIVE_POSITION_R units="m">27.4</RELATIVE_POSITION_R>
        <RELATIVE_POSITION_T units="m">-70.2</RELATIVE_POSITION_T>
        <RELATIVE_POSITION_N units="m">711.8</RELATIVE_POSITION_N>
        <RELATIVE_VELOCITY_R units="m/s">-7.2</RELATIVE_VELOCITY_R>
        <RELATIVE_VELOCITY_T units="m/s">-14692.0</RELATIVE_VELOCITY_T>
        <RELATIVE_VELOCITY_N units="m/s">-1437.2</RELATIVE_VELOCITY_N>
      </relativeStateVector>
      <START_SCREEN_PERIOD>2010-03-12T18:29:32</START_SCREEN_PERIOD>
      <STOP_SCREEN_PERIOD>2010-03-15T18:29:32</STOP_SCREEN_PERIOD>
      <SCREEN_VOLUME_FRAME>RTN</SCREEN_VOLUME_FRAME>
      <SCREEN_VOLUME_SHAPE>ELLIPSOID</SCREEN_VOLUME_SHAPE>
      <SCREEN_VOLUME_X units="m">200.0</SCREEN_VOLUME_X>
      <SCREEN_VOLUME_Y units="m">1000.0</SCREEN_VOLUME_Y>
      <SCREEN_VOLUME_Z units="m">1000.0</SCREEN_VOLUME_Z>
      <SCREEN_ENTRY_TIME>2010-03-13T22:37:32</SCREEN_ENTRY_TIME>
      <SCREEN_EXIT_TIME>2010-03-13T22:38:12</SCREEN_EXIT_TIME>
      <COLLISION_PROBABILITY>4.35E-05</COLLISION_PROBABILITY>
      <COLLISION_PROBABILITY_METHOD>FOSTER-1992</COLLISION_PROBABILITY_METHOD>
    </relativeMetadataData>
    <segment>
      <metadata>
        <COMMENT>Object1 metadata, OD parameters, state, and covariance</COMMENT>
        <OBJECT>OBJECT1</OBJECT>
        <OBJECT_DESIGNATOR>12345</OBJECT_DESIGNATOR>
        <CATALOG_NAME>SATCAT</CATALOG_NAME>
        <OBJECT_NAME>SATELLITE A</OBJECT_NAME>
        <INTERNATIONAL_DESIGNATOR>1997-030E</INTERNATIONAL_DESIGNATOR>
        <OBJECT_TYPE>PAYLOAD</OBJECT_TYPE>
        <OPERATOR_CONTACT_POSITION>OSA</OPERATOR_CONTACT_POSITION>
        <OPERATOR_ORGANIZATION>EUMETSAT</OPERATOR_ORGANIZATION>
        <OPERATOR_PHONE>+49615130312</OPERATOR_PHONE>
        <OPERATOR_EMAIL>JOHN.DOE@SOMEWHERE.NET</OPERATOR_EMAIL>
        <EPHEMERIS_NAME>EPHEMERIS SATELLITE A</EPHEMERIS_NAME>
        <COVARIANCE_METHOD>CALCULATED</COVARIANCE_METHOD>
        <MANEUVERABLE>NO</MANEUVERABLE>
        <REF_FRAME>EME2000</REF_FRAME>
        <GRAVITY_MODEL>EGM-96: 36D 36O</GRAVITY_MODEL>
        <ATMOSPHERIC_MODEL>JACCHIA 70 DCA</ATMOSPHERIC_MODEL>
        <N_BODY_PERTURBATIONS>MOON, SUN</N_BODY_PERTURBATIONS>
        <SOLAR_RAD_PRESSURE>NO</SOLAR_RAD_PRESSURE>
        <EARTH_TIDES>NO</EARTH_TIDES>
        <INTRACK_THRUST>NO</INTRACK_THRUST>
      </metadata>
      <data>
        <odParameters>
          <TIME_LASTOB_START>2010-03-12T02:14:12.746</TIME_LASTOB_START>
          <TIME_LASTOB_END>2010-03-12T02:14:12.746</TIME_LASTOB_END>
          <RECOMMENDED_OD_SPAN units="d">7.88</RECOMMENDED_OD_SPAN>
          <ACTUAL_OD_SPAN units="d">5.5</ACTUAL_OD_SPAN>
          <OBS_AVAILABLE>592</OBS_AVAILABLE>
          <OBS_USED>579</OBS_USED>
          <TRACKS_AVAILABLE>123</TRACKS_AVAILABLE>
          <TRACKS_USED>119</TRACKS_USED>
          <RESIDUALS_ACCEPTED units="%">97.8</RESIDUALS_ACCEPTED>
          <WEIGHTED_RMS>0.864</WEIGHTED_RMS>
        </odParameters>
        <additionalParameters>
          <AREA_PC units="m**2">4.5</AREA_PC>
          <MASS units="kg">251.6</MASS>
          <CD_AREA_OVER_MASS units="m**2/kg">0.045663</CD_AREA_OVER_MASS>
          <CR_AREA_OVER_MASS units="m**2/kg">0.0</CR_AREA_OVER_MASS>
          <THRUST_ACCELERATION units="m/s**2">0.0</THRUST_ACCELERATION>
          <SEDR units="W/kg">4.5457E-05</SEDR>
        </additionalParameters>
        <stateVector>
          <X units="km">2570.097065</X>
          <Y units="km">2244.654904</Y>
          <Z units="km">6281.497978</Z>
          <X_DOT units="km/s">4.418769571</X_DOT>
          <Y_DOT units="km/s">4.833547743</Y_DOT>
          <Z_DOT units="km/s">-3.526774327</Z_DOT>
        </stateVector>
        <covarianceMatrix>
          <CR_R units="m**2">41.42</CR_R>
          <CT_R units="m**2">-8.579</CT_R>
          <CT_T units="m**2">2533.0</CT_T>
          <CN_R units="m**2">-23.13</CN_R>
          <CN_T units="m**2">13.36</CN_T>
          <CN_N units="m**2">70.98</CN_N>
          <CRDOT_R units="m**2/s">0.00252</CRDOT_R>
          <CRDOT_T units="m**2/s">-5.476</CRDOT_T>
          <CRDOT_N units="m**2/s">0.0008626</CRDOT_N>
          <CRDOT_RDOT units="m**2/s**2">0.005744</CRDOT_RDOT>
          <CTDOT_R units="m**2/s">-0.01006</CTDOT_R>
          <CTDOT_T units="m**2/s">0.004041</CTDOT_T>
          <CTDOT_N units="m**2/s">-0.001359</CTDOT_N>
          <CTDOT_RDOT units="m**2/s**2">-1.502E-05</CTDOT_RDOT>
          <CTDOT_TDOT units="m**2/s**2">1.049E-05</CTDOT_TDOT>
          <CNDOT_R units="m**2/s">0.001053</CNDOT_R>
          <CNDOT_T units="m**2/s">-0.003412</CNDOT_T>
          <CNDOT_N units="m**2/s">0.001213</CNDOT_N>
          <CNDOT_RDOT units="m**2/s**2">-3.004E-06</CNDOT_RDOT>
          <CNDOT_TDOT units="m**2/s**2">-1.091E-06</CNDOT_TDOT>
          <CNDOT_NDOT units="m**2/s**2">5.529E-06</CNDOT_NDOT>
        </covarianceMatrix>
      </data>
    </segment>
    <segment>
      <metadata>
        <COMMENT>Object2 metadata, state, and covariance</COMMENT>
        <OBJECT>OBJECT2</OBJECT>
        <OBJECT_DESIGNATOR>30337</OBJECT_DESIGNATOR>
        <CATALOG_NAME>SATCAT</CATALOG_NAME>
        <OBJECT_NAME>FENGYUN 1C DEB</OBJECT_NAME>
        <INTERNATIONAL_DESIGNATOR>1999-025AA</INTERNATIONAL_DESIGNATOR>
        <OBJECT_TYPE>DEBRIS</OBJECT_TYPE>
        <EPHEMERIS_NAME>NONE</EPHEMERIS_NAME>
        <COVARIANCE_METHOD>CALCULATED</COVARIANCE_METHOD>
        <MANEUVERABLE>N/A</MANEUVERABLE>
        <REF_FRAME>EME2000</REF_FRAME>
      </metadata>
      <data>
        <stateVector>
          <X units="km">2569.5408</X>
          <Y units="km">2245.093614</Y>
          <Z units="km">6281.599946</Z>
          <X_DOT units="km/s">-2.8886125</X_DOT>
          <Y_DOT units="km/s">-6.007247516</Y_DOT>
          <Z_DOT units="km/s">3.328770172</Z_DOT>
        </stateVector>
        <covarianceMatrix>
          <CR_R units="m**2">1337.0</CR_R>
          <CT_R units="m**2">-715.0</CT_R>
          <CT_T units="m**2">4041.0</CT_T>
          <CN_R units="m**2">-323.1</CN_R>
          <CN_T units="m**2">139.7</CN_T>
          <CN_N units="m**2">873.2</CN_N>
          <CRDOT_R units="m**2/s">0.006111</CRDOT_R>
          <CRDOT_T units="m**2/s">-0.00122</CRDOT_T>
          <CRDOT_N units="m**2/s">-0.001232</CRDOT_N>
          <CRDOT_RDOT units="m**2/s**2">1.515E-05</CRDOT_RDOT>
          <CTDOT_R units="m**2/s">-0.001165</CTDOT_R>
          <CTDOT_T units="m**2/s">0.004483</CTDOT_T>
          <CTDOT_N units="m**2/s">0.001107</CTDOT_N>
          <CTDOT_RDOT units="m**2/s**2">-8.972E-06</CTDOT_RDOT>
          <CTDOT_TDOT units="m**2/s**2">9.626E-06</CTDOT_TDOT>
          <CNDOT_R units="m**2/s">0.001404</CNDOT_R>
          <CNDOT_T units="m**2/s">-0.002058</CNDOT_T>
          <CNDOT_N units="m**2/s">0.001973</CNDOT_N>
          <CNDOT_RDOT units="m**2/s**2">-4.616E-06</CNDOT_RDOT>
          <CNDOT_TDOT units="m**2/s**2">-2.336E-06</CNDOT_TDOT>
          <CNDOT_NDOT units="m**2/s**2">7.26E-06</CNDOT_NDOT>
        </covarianceMatrix>
      </data>
    </segment>
  </body>
</cdm>
